KUIPER-00247            
1 67152U 25301V   26064.44712046  .00052538  00000+0  14407-2 0  9998
2 67152  51.8631  86.4717 0014450  41.5093 318.6988 15.36667910 13074
KUIPER-00248            
1 67153U 25301W   26064.47969286  .00037428  00000+0  10135-2 0  9997
2 67153  51.8662  85.9805 0011103  27.5366 332.6207 15.37254007 13250
KUIPER-00249            
1 67154U 25301X   26064.45266748  .00041848  00000+0  11073-2 0  9992
2 67154  51.8651  85.7905 0010179  27.9363 332.2169 15.37927295 13081
KUIPER-00250            
1 67155U 25301Y   26064.83334490 -.01169196  00000+0 -10661+0 0  9994
2 67155  51.9275  87.4282 0009265  41.3602  39.7027 14.97499940  5856
KUIPER-00251            
1 67156U 25301Z   26064.46948806  .00066967  00000+0  17851-2 0  9996
2 67156  51.8649  85.9060 0011011  33.8952 326.2736 15.37479342 13279
KUIPER-00252            
1 67157U 25301AA  26064.68225109  .00053466  00000+0  14429-2 0  9993
2 67157  51.8641  85.0711 0012827  38.6558 321.5344 15.37178051 13116
KUIPER-00261            
1 67158U 25301AB  26064.83334490 -.01641572  00000+0 -16306+0 0  9992
2 67158  51.8954  87.7062 0011488  43.7336 131.0547 14.94713146  5353
KUIPER-00265            
1 67159U 25301AC  26064.41676460  .00004757  00000+0  65266-3 0  9991
2 67159  51.9022 104.5070 0001279  27.4554 332.6476 14.79927863 12855
KUIPER-00159            
1 67764U 26030A   26064.79274021  .00027492  00000+0  79102-3 0  9996
2 67764  51.8846 237.9568 0004681  35.0548 325.0745 15.35567797  4496
KUIPER-00160            
1 67765U 26030B   26064.79398218  .00035815  00000+0  10312-2 0  9997
2 67765  51.8815 237.9570 0005069  43.8107 316.3280 15.35410770  4490
KUIPER-00177            
1 67766U 26030C   26064.78154418  .00033225  00000+0  92950-3 0  9991
2 67766  51.8828 237.8821 0001156  18.0817 342.0211 15.36355024  4499
KUIPER-00178            
1 67767U 26030D   26064.79570686  .00038597  00000+0  11114-2 0  9991
2 67767  51.8838 237.9741 0006270  34.8327 325.3068 15.35365387  4493
KUIPER-00180            
1 67768U 26030E   26064.76185382 -.00004168  00000+0 -12011-3 0  9991
2 67768  51.8804 238.4805 0014404  57.5578 302.6798 15.32117434  4484
KUIPER-00197            
1 67769U 26030F   26064.78372046  .00032982  00000+0  92657-3 0  9996
2 67769  51.8832 237.8960 0001391  52.3520 307.7592 15.36228301  4491
KUIPER-00198            
1 67770U 26030G   26064.78867438  .00031493  00000+0  89549-3 0  9994
2 67770  51.8813 237.9228 0003403  36.5012 323.6206 15.35870690  4498
KUIPER-00199            
1 67771U 26030H   26064.74573259  .00025269  00000+0  75983-3 0  9997
2 67771  51.8813 238.3778 0010385  49.7237 310.4654 15.34187224  4489
KUIPER-00200            
1 67772U 26030J   26064.84026779  .00037261  00000+0  10230-2 0  9997
2 67772  51.8806 237.5237 0001234 221.9885 138.1007 15.36884427  4500
