[{"OBJECT_NAME":"KUIPER-00247","OBJECT_ID":"2025-301V","EPOCH":"2026-03-05T10:43:51.207744","MEAN_MOTION":15.3666791,"ECCENTRICITY":0.001445,"INCLINATION":51.8631,"RA_OF_ASC_NODE":86.4717,"ARG_OF_PERICENTER":41.5093,"MEAN_ANOMALY":318.6988,"EPHEMERIS_TYPE":0,"CLASSIFICATION_TYPE":"U","NORAD_CAT_ID":67152,"ELEMENT_SET_NO":999,"REV_AT_EPOCH":1307,"BSTAR":0.0014407,"MEAN_MOTION_DOT":0.00052538,"MEAN_MOTION_DDOT":0},{"OBJECT_NAME":"KUIPER-00248","OBJECT_ID":"2025-301W","EPOCH":"2026-03-05T11:30:45.463104","MEAN_MOTION":15.37254007,"ECCENTRICITY":0.0011103,"INCLINATION":51.8662,"RA_OF_ASC_NODE":85.9805,"ARG_OF_PERICENTER":27.5366,"MEAN_ANOMALY":332.6207,"EPHEMERIS_TYPE":0,"CLASSIFICATION_TYPE":"U","NORAD_CAT_ID":67153,"ELEMENT_SET_NO":999,"REV_AT_EPOCH":1325,"BSTAR":0.0010135,"MEAN_MOTION_DOT":0.00037428,"MEAN_MOTION_DDOT":0},{"OBJECT_NAME":"KUIPER-00249","OBJECT_ID":"2025-301X","EPOCH":"2026-03-05T10:51:50.470272","MEAN_MOTION":15.37927295,"ECCENTRICITY":0.0010179,"INCLINATION":51.8651,"RA_OF_ASC_NODE":85.7905,"ARG_OF_PERICENTER":27.9363,"MEAN_ANOMALY":332.2169,"EPHEMERIS_TYPE":0,"CLASSIFICATION_TYPE":"U","NORAD_CAT_ID":67154,"ELEMENT_SET_NO":999,"REV_AT_EPOCH":1308,"BSTAR":0.0011073,"MEAN_MOTION_DOT":0.00041848,"MEAN_MOTION_DDOT":0},{"OBJECT_NAME":"KUIPER-00250","OBJECT_ID":"2025-301Y","EPOCH":"2026-03-05T20:00:00.999360","MEAN_MOTION":14.9749994,"ECCENTRICITY":0.0009265,"INCLINATION":51.9275,"RA_OF_ASC_NODE":87.4282,"ARG_OF_PERICENTER":41.3602,"MEAN_ANOMALY":39.7027,"EPHEMERIS_TYPE":0,"CLASSIFICATION_TYPE":"U","NORAD_CAT_ID":67155,"ELEMENT_SET_NO":999,"REV_AT_EPOCH":585,"BSTAR":-0.10661,"MEAN_MOTION_DOT":-0.01169196,"MEAN_MOTION_DDOT":0},{"OBJECT_NAME":"KUIPER-00251","OBJECT_ID":"2025-301Z","EPOCH":"2026-03-05T11:16:03.768384","MEAN_MOTION":15.37479342,"ECCENTRICITY":0.0011011,"INCLINATION":51.8649,"RA_OF_ASC_NODE":85.906,"ARG_OF_PERICENTER":33.8952,"MEAN_ANOMALY":326.2736,"EPHEMERIS_TYPE":0,"CLASSIFICATION_TYPE":"U","NORAD_CAT_ID":67156,"ELEMENT_SET_NO":999,"REV_AT_EPOCH":1327,"BSTAR":0.0017851,"MEAN_MOTION_DOT":0.00066967,"MEAN_MOTION_DDOT":0},{"OBJECT_NAME":"KUIPER-00252","OBJECT_ID":"2025-301AA","EPOCH":"2026-03-05T16:22:26.494176","MEAN_MOTION":15.37178051,"ECCENTRICITY":0.0012827,"INCLINATION":51.8641,"RA_OF_ASC_NODE":85.0711,"ARG_OF_PERICENTER":38.6558,"MEAN_ANOMALY":321.5344,"EPHEMERIS_TYPE":0,"CLASSIFICATION_TYPE":"U","NORAD_CAT_ID":67157,"ELEMENT_SET_NO":999,"REV_AT_EPOCH":1311,"BSTAR":0.0014429,"MEAN_MOTION_DOT":0.00053466,"MEAN_MOTION_DDOT":0},{"OBJECT_NAME":"KUIPER-00261","OBJECT_ID":"2025-301AB","EPOCH":"2026-03-05T20:00:00.999360","MEAN_MOTION":14.94713146,"ECCENTRICITY":0.0011488,"INCLINATION":51.8954,"RA_OF_ASC_NODE":87.7062,"ARG_OF_PERICENTER":43.7336,"MEAN_ANOMALY":131.0547,"EPHEMERIS_TYPE":0,"CLASSIFICATION_TYPE":"U","NORAD_CAT_ID":67158,"ELEMENT_SET_NO":999,"REV_AT_EPOCH":535,"BSTAR":-0.16306,"MEAN_MOTION_DOT":-0.01641572,"MEAN_MOTION_DDOT":0},{"OBJECT_NAME":"KUIPER-00265","OBJECT_ID":"2025-301AC","EPOCH":"2026-03-05T10:00:08.461440","MEAN_MOTION":14.79927863,"ECCENTRICITY":0.0001279,"INCLINATION":51.9022,"RA_OF_ASC_NODE":104.507,"ARG_OF_PERICENTER":27.4554,"MEAN_ANOMALY":332.6476,"EPHEMERIS_TYPE":0,"CLASSIFICATION_TYPE":"U","NORAD_CAT_ID":67159,"ELEMENT_SET_NO":999,"REV_AT_EPOCH":1285,"BSTAR":0.00065266,"MEAN_MOTION_DOT":4.757e-5,"MEAN_MOTION_DDOT":0},{"OBJECT_NAME":"KUIPER-00159","OBJECT_ID":"2026-030A","EPOCH":"2026-03-05T19:01:32.754144","MEAN_MOTION":15.35567797,"ECCENTRICITY":0.0004681,"INCLINATION":51.8846,"RA_OF_ASC_NODE":237.9568,"ARG_OF_PERICENTER":35.0548,"MEAN_ANOMALY":325.0745,"EPHEMERIS_TYPE":0,"CLASSIFICATION_TYPE":"U","NORAD_CAT_ID":67764,"ELEMENT_SET_NO":999,"REV_AT_EPOCH":449,"BSTAR":0.00079102,"MEAN_MOTION_DOT":0.00027492,"MEAN_MOTION_DDOT":0},{"OBJECT_NAME":"KUIPER-00160","OBJECT_ID":"2026-030B","EPOCH":"2026-03-05T19:03:20.060352","MEAN_MOTION":15.3541077,"ECCENTRICITY":0.0005069,"INCLINATION":51.8815,"RA_OF_ASC_NODE":237.957,"ARG_OF_PERICENTER":43.8107,"MEAN_ANOMALY":316.328,"EPHEMERIS_TYPE":0,"CLASSIFICATION_TYPE":"U","NORAD_CAT_ID":67765,"ELEMENT_SET_NO":999,"REV_AT_EPOCH":449,"BSTAR":0.0010312,"MEAN_MOTION_DOT":0.00035815,"MEAN_MOTION_DDOT":0},{"OBJECT_NAME":"KUIPER-00177","OBJECT_ID":"2026-030C","EPOCH":"2026-03-05T18:45:25.417152","MEAN_MOTION":15.36355024,"ECCENTRICITY":0.0001156,"INCLINATION":51.8828,"RA_OF_ASC_NODE":237.8821,"ARG_OF_PERICENTER":18.0817,"MEAN_ANOMALY":342.0211,"EPHEMERIS_TYPE":0,"CLASSIFICATION_TYPE":"U","NORAD_CAT_ID":67766,"ELEMENT_SET_NO":999,"REV_AT_EPOCH":449,"BSTAR":0.0009295,"MEAN_MOTION_DOT":0.00033225,"MEAN_MOTION_DDOT":0},{"OBJECT_NAME":"KUIPER-00178","OBJECT_ID":"2026-030D","EPOCH":"2026-03-05T19:05:49.072704","MEAN_MOTION":15.35365387,"ECCENTRICITY":0.000627,"INCLINATION":51.8838,"RA_OF_ASC_NODE":237.9741,"ARG_OF_PERICENTER":34.8327,"MEAN_ANOMALY":325.3068,"EPHEMERIS_TYPE":0,"CLASSIFICATION_TYPE":"U","NORAD_CAT_ID":67767,"ELEMENT_SET_NO":999,"REV_AT_EPOCH":449,"BSTAR":0.0011114,"MEAN_MOTION_DOT":0.00038597,"MEAN_MOTION_DDOT":0},{"OBJECT_NAME":"KUIPER-00180","OBJECT_ID":"2026-030E","EPOCH":"2026-03-05T18:17:04.170048","MEAN_MOTION":15.32117434,"ECCENTRICITY":0.0014404,"INCLINATION":51.8804,"RA_OF_ASC_NODE":238.4805,"ARG_OF_PERICENTER":57.5578,"MEAN_ANOMALY":302.6798,"EPHEMERIS_TYPE":0,"CLASSIFICATION_TYPE":"U","NORAD_CAT_ID":67768,"ELEMENT_SET_NO":999,"REV_AT_EPOCH":448,"BSTAR":-0.00012011,"MEAN_MOTION_DOT":-4.168e-5,"MEAN_MOTION_DDOT":0},{"OBJECT_NAME":"KUIPER-00197","OBJECT_ID":"2026-030F","EPOCH":"2026-03-05T18:48:33.447744","MEAN_MOTION":15.36228301,"ECCENTRICITY":0.0001391,"INCLINATION":51.8832,"RA_OF_ASC_NODE":237.896,"ARG_OF_PERICENTER":52.352,"MEAN_ANOMALY":307.7592,"EPHEMERIS_TYPE":0,"CLASSIFICATION_TYPE":"U","NORAD_CAT_ID":67769,"ELEMENT_SET_NO":999,"REV_AT_EPOCH":449,"BSTAR":0.00092657,"MEAN_MOTION_DOT":0.00032982,"MEAN_MOTION_DDOT":0},{"OBJECT_NAME":"KUIPER-00198","OBJECT_ID":"2026-030G","EPOCH":"2026-03-05T18:55:41.466432","MEAN_MOTION":15.3587069,"ECCENTRICITY":0.0003403,"INCLINATION":51.8813,"RA_OF_ASC_NODE":237.9228,"ARG_OF_PERICENTER":36.5012,"MEAN_ANOMALY":323.6206,"EPHEMERIS_TYPE":0,"CLASSIFICATION_TYPE":"U","NORAD_CAT_ID":67770,"ELEMENT_SET_NO":999,"REV_AT_EPOCH":449,"BSTAR":0.00089549,"MEAN_MOTION_DOT":0.00031493,"MEAN_MOTION_DDOT":0},{"OBJECT_NAME":"KUIPER-00199","OBJECT_ID":"2026-030H","EPOCH":"2026-03-05T17:53:51.295776","MEAN_MOTION":15.34187224,"ECCENTRICITY":0.0010385,"INCLINATION":51.8813,"RA_OF_ASC_NODE":238.3778,"ARG_OF_PERICENTER":49.7237,"MEAN_ANOMALY":310.4654,"EPHEMERIS_TYPE":0,"CLASSIFICATION_TYPE":"U","NORAD_CAT_ID":67771,"ELEMENT_SET_NO":999,"REV_AT_EPOCH":448,"BSTAR":0.00075983,"MEAN_MOTION_DOT":0.00025269,"MEAN_MOTION_DDOT":0},{"OBJECT_NAME":"KUIPER-00200","OBJECT_ID":"2026-030J","EPOCH":"2026-03-05T20:09:59.137056","MEAN_MOTION":15.36884427,"ECCENTRICITY":0.0001234,"INCLINATION":51.8806,"RA_OF_ASC_NODE":237.5237,"ARG_OF_PERICENTER":221.9885,"MEAN_ANOMALY":138.1007,"EPHEMERIS_TYPE":0,"CLASSIFICATION_TYPE":"U","NORAD_CAT_ID":67772,"ELEMENT_SET_NO":999,"REV_AT_EPOCH":450,"BSTAR":0.001023,"MEAN_MOTION_DOT":0.00037261,"MEAN_MOTION_DDOT":0}]
